[{"OBJECT_NAME":"OBJECT E","OBJECT_ID":"2024-174E","EPOCH":"2026-03-09T23:40:24.424320","MEAN_MOTION":15.26241811,"ECCENTRICITY":0.00122518,"INCLINATION":97.4515,"RA_OF_ASC_NODE":80.1669,"ARG_OF_PERICENTER":217.7524,"MEAN_ANOMALY":142.2856,"EPHEMERIS_TYPE":0,"CLASSIFICATION_TYPE":"U","NORAD_CAT_ID":61242,"ELEMENT_SET_NO":999,"REV_AT_EPOCH":8070,"BSTAR":0.00031155901,"MEAN_MOTION_DOT":8.013e-5,"MEAN_MOTION_DDOT":0},{"OBJECT_NAME":"STARLINK-34078","OBJECT_ID":"2025-101U","EPOCH":"2026-03-09T04:49:09.580512","MEAN_MOTION":15.27629618,"ECCENTRICITY":0.00012335,"INCLINATION":43.0028,"RA_OF_ASC_NODE":0.4462,"ARG_OF_PERICENTER":261.5037,"MEAN_ANOMALY":98.5675,"EPHEMERIS_TYPE":0,"CLASSIFICATION_TYPE":"U","NORAD_CAT_ID":64012,"ELEMENT_SET_NO":999,"REV_AT_EPOCH":4698,"BSTAR":0.0010502309,"MEAN_MOTION_DOT":0.00028795,"MEAN_MOTION_DDOT":0}]
